CCSDS_OMM_VERS = 2.0
CREATION_DATE  = 
ORIGINATOR     = 

OBJECT_NAME    = SL-4 R/B
OBJECT_ID      = 2014-021B
CENTER_NAME    = EARTH
REF_FRAME      = TEME
TIME_SYSTEM    = UTC
MEAN_ELEMENT_THEORY = SGP/SGP4

EPOCH          = 2025-12-30T13:29:44.924928
MEAN_MOTION    = 15.37114740
ECCENTRICITY   = .0100355
INCLINATION    = 51.6083
RA_OF_ASC_NODE = 313.9519
ARG_OF_PERICENTER = 210.6128
MEAN_ANOMALY   = 148.8975

EPHEMERIS_TYPE = 0
CLASSIFICATION_TYPE = U
NORAD_CAT_ID   = 39679
ELEMENT_SET_NO = 999
REV_AT_EPOCH   = 64563
BSTAR          = .37677E-3
MEAN_MOTION_DOT = .16086E-3
MEAN_MOTION_DDOT = 0

CCSDS_OMM_VERS = 2.0
CREATION_DATE  = 
ORIGINATOR     = 

OBJECT_NAME    = ALOS-2
OBJECT_ID      = 2014-029A
CENTER_NAME    = EARTH
REF_FRAME      = TEME
TIME_SYSTEM    = UTC
MEAN_ELEMENT_THEORY = SGP/SGP4

EPOCH          = 2025-12-30T19:13:26.544288
MEAN_MOTION    = 14.79494213
ECCENTRICITY   = .000134
INCLINATION    = 97.9213
RA_OF_ASC_NODE = 99.3896
ARG_OF_PERICENTER = 96.3654
MEAN_ANOMALY   = 263.7710

EPHEMERIS_TYPE = 0
CLASSIFICATION_TYPE = U
NORAD_CAT_ID   = 39766
ELEMENT_SET_NO = 999
REV_AT_EPOCH   = 62668
BSTAR          = .79631E-3
MEAN_MOTION_DOT = .5904E-4
MEAN_MOTION_DDOT = 0

CCSDS_OMM_VERS = 2.0
CREATION_DATE  = 
ORIGINATOR     = 

OBJECT_NAME    = YAOGAN-29
OBJECT_ID      = 2015-069A
CENTER_NAME    = EARTH
REF_FRAME      = TEME
TIME_SYSTEM    = UTC
MEAN_ELEMENT_THEORY = SGP/SGP4

EPOCH          = 2025-12-30T20:03:44.332128
MEAN_MOTION    = 14.82904991
ECCENTRICITY   = .0001334
INCLINATION    = 98.0214
RA_OF_ASC_NODE = 28.0647
ARG_OF_PERICENTER = 152.9050
MEAN_ANOMALY   = 207.2233

EPHEMERIS_TYPE = 0
CLASSIFICATION_TYPE = U
NORAD_CAT_ID   = 41038
ELEMENT_SET_NO = 999
REV_AT_EPOCH   = 54567
BSTAR          = .1399E-3
MEAN_MOTION_DOT = .108E-4
MEAN_MOTION_DDOT = 0

CCSDS_OMM_VERS = 2.0
CREATION_DATE  = 
ORIGINATOR     = 

OBJECT_NAME    = ASTRO-H (HITOMI)
OBJECT_ID      = 2016-012A
CENTER_NAME    = EARTH
REF_FRAME      = TEME
TIME_SYSTEM    = UTC
MEAN_ELEMENT_THEORY = SGP/SGP4

EPOCH          = 2025-12-30T13:04:40.872000
MEAN_MOTION    = 15.09483600
ECCENTRICITY   = .0009605
INCLINATION    = 30.9999
RA_OF_ASC_NODE = 82.5743
ARG_OF_PERICENTER = 357.4048
MEAN_ANOMALY   = 2.6539

EPHEMERIS_TYPE = 0
CLASSIFICATION_TYPE = U
NORAD_CAT_ID   = 41337
ELEMENT_SET_NO = 999
REV_AT_EPOCH   = 54177
BSTAR          = .34951E-3
MEAN_MOTION_DOT = .5837E-4
MEAN_MOTION_DDOT = 0

CCSDS_OMM_VERS = 2.0
CREATION_DATE  = 
ORIGINATOR     = 

OBJECT_NAME    = HXMT (HUIYAN)
OBJECT_ID      = 2017-034A
CENTER_NAME    = EARTH
REF_FRAME      = TEME
TIME_SYSTEM    = UTC
MEAN_ELEMENT_THEORY = SGP/SGP4

EPOCH          = 2025-12-30T13:49:40.259424
MEAN_MOTION    = 15.16475743
ECCENTRICITY   = .0031849
INCLINATION    = 43.0153
RA_OF_ASC_NODE = 40.6355
ARG_OF_PERICENTER = 160.0131
MEAN_ANOMALY   = 200.1971

EPHEMERIS_TYPE = 0
CLASSIFICATION_TYPE = U
NORAD_CAT_ID   = 42758
ELEMENT_SET_NO = 999
REV_AT_EPOCH   = 47204
BSTAR          = .55591E-3
MEAN_MOTION_DOT = .10938E-3
MEAN_MOTION_DDOT = 0

CCSDS_OMM_VERS = 2.0
CREATION_DATE  = 
ORIGINATOR     = 

OBJECT_NAME    = CZ-2C R/B
OBJECT_ID      = 2018-054D
CENTER_NAME    = EARTH
REF_FRAME      = TEME
TIME_SYSTEM    = UTC
MEAN_ELEMENT_THEORY = SGP/SGP4

EPOCH          = 2025-12-30T11:18:02.710944
MEAN_MOTION    = 15.78218532
ECCENTRICITY   = .0013438
INCLINATION    = 35.1333
RA_OF_ASC_NODE = 60.3140
ARG_OF_PERICENTER = 319.5558
MEAN_ANOMALY   = 40.4177

EPHEMERIS_TYPE = 0
CLASSIFICATION_TYPE = U
NORAD_CAT_ID   = 43521
ELEMENT_SET_NO = 999
REV_AT_EPOCH   = 41785
BSTAR          = .90937556E-3
MEAN_MOTION_DOT = .166066E-2
MEAN_MOTION_DDOT = 0

CCSDS_OMM_VERS = 2.0
CREATION_DATE  = 
ORIGINATOR     = 

OBJECT_NAME    = SAOCOM 1A
OBJECT_ID      = 2018-076A
CENTER_NAME    = EARTH
REF_FRAME      = TEME
TIME_SYSTEM    = UTC
MEAN_ELEMENT_THEORY = SGP/SGP4

EPOCH          = 2025-12-30T18:21:14.843232
MEAN_MOTION    = 14.82154587
ECCENTRICITY   = .0001424
INCLINATION    = 97.8849
RA_OF_ASC_NODE = 188.9241
ARG_OF_PERICENTER = 82.0562
MEAN_ANOMALY   = 278.0812

EPHEMERIS_TYPE = 0
CLASSIFICATION_TYPE = U
NORAD_CAT_ID   = 43641
ELEMENT_SET_NO = 999
REV_AT_EPOCH   = 39115
BSTAR          = .57231E-4
MEAN_MOTION_DOT = .403E-5
MEAN_MOTION_DDOT = 0

CCSDS_OMM_VERS = 2.0
CREATION_DATE  = 
ORIGINATOR     = 

OBJECT_NAME    = H-2A R/B
OBJECT_ID      = 2018-084L
CENTER_NAME    = EARTH
REF_FRAME      = TEME
TIME_SYSTEM    = UTC
MEAN_ELEMENT_THEORY = SGP/SGP4

EPOCH          = 2025-12-30T15:39:40.690656
MEAN_MOTION    = 15.38103922
ECCENTRICITY   = .0026181
INCLINATION    = 98.8767
RA_OF_ASC_NODE = 202.4539
ARG_OF_PERICENTER = 263.5082
MEAN_ANOMALY   = 96.3177

EPHEMERIS_TYPE = 0
CLASSIFICATION_TYPE = U
NORAD_CAT_ID   = 43682
ELEMENT_SET_NO = 999
REV_AT_EPOCH   = 39515
BSTAR          = .79766E-3
MEAN_MOTION_DOT = .30245E-3
MEAN_MOTION_DDOT = 0

CCSDS_OMM_VERS = 2.0
CREATION_DATE  = 
ORIGINATOR     = 

OBJECT_NAME    = SAOCOM 1B
OBJECT_ID      = 2020-059A
CENTER_NAME    = EARTH
REF_FRAME      = TEME
TIME_SYSTEM    = UTC
MEAN_ELEMENT_THEORY = SGP/SGP4

EPOCH          = 2025-12-30T19:06:14.259168
MEAN_MOTION    = 14.82159487
ECCENTRICITY   = .0001415
INCLINATION    = 97.8845
RA_OF_ASC_NODE = 188.0545
ARG_OF_PERICENTER = 84.1215
MEAN_ANOMALY   = 276.0159

EPHEMERIS_TYPE = 0
CLASSIFICATION_TYPE = U
NORAD_CAT_ID   = 46265
ELEMENT_SET_NO = 999
REV_AT_EPOCH   = 28854
BSTAR          = .1311E-3
MEAN_MOTION_DOT = .992E-5
MEAN_MOTION_DDOT = 0

CCSDS_OMM_VERS = 2.0
CREATION_DATE  = 
ORIGINATOR     = 

OBJECT_NAME    = CSS (TIANHE)
OBJECT_ID      = 2021-035A
CENTER_NAME    = EARTH
REF_FRAME      = TEME
TIME_SYSTEM    = UTC
MEAN_ELEMENT_THEORY = SGP/SGP4

EPOCH          = 2025-12-30T18:33:36.004032
MEAN_MOTION    = 15.59924070
ECCENTRICITY   = .0009716
INCLINATION    = 41.4669
RA_OF_ASC_NODE = 267.1660
ARG_OF_PERICENTER = 184.6419
MEAN_ANOMALY   = 175.4330

EPHEMERIS_TYPE = 0
CLASSIFICATION_TYPE = U
NORAD_CAT_ID   = 48274
ELEMENT_SET_NO = 999
REV_AT_EPOCH   = 26684
BSTAR          = .30324E-3
MEAN_MOTION_DOT = .24941E-3
MEAN_MOTION_DDOT = 0

CCSDS_OMM_VERS = 2.0
CREATION_DATE  = 
ORIGINATOR     = 

OBJECT_NAME    = COSMOS 2550
OBJECT_ID      = 2021-056A
CENTER_NAME    = EARTH
REF_FRAME      = TEME
TIME_SYSTEM    = UTC
MEAN_ELEMENT_THEORY = SGP/SGP4

EPOCH          = 2025-12-30T23:37:12.381312
MEAN_MOTION    = 15.33835013
ECCENTRICITY   = .0008364
INCLINATION    = 67.1417
RA_OF_ASC_NODE = 248.7510
ARG_OF_PERICENTER = 270.0048
MEAN_ANOMALY   = 90.0148

EPHEMERIS_TYPE = 0
CLASSIFICATION_TYPE = U
NORAD_CAT_ID   = 48865
ELEMENT_SET_NO = 999
REV_AT_EPOCH   = 25292
BSTAR          = .47448E-6
MEAN_MOTION_DOT = -.176E-5
MEAN_MOTION_DDOT = 0

CCSDS_OMM_VERS = 2.0
CREATION_DATE  = 
ORIGINATOR     = 

OBJECT_NAME    = CZ-2C R/B
OBJECT_ID      = 2022-058K
CENTER_NAME    = EARTH
REF_FRAME      = TEME
TIME_SYSTEM    = UTC
MEAN_ELEMENT_THEORY = SGP/SGP4

EPOCH          = 2025-12-30T06:57:19.356768
MEAN_MOTION    = 15.49507691
ECCENTRICITY   = .00441299
INCLINATION    = 50.1913
RA_OF_ASC_NODE = 313.9891
ARG_OF_PERICENTER = 270.5241
MEAN_ANOMALY   = 89.0671

EPHEMERIS_TYPE = 0
CLASSIFICATION_TYPE = U
NORAD_CAT_ID   = 52794
ELEMENT_SET_NO = 999
REV_AT_EPOCH   = 19935
BSTAR          = .78994711E-3
MEAN_MOTION_DOT = .4594E-3
MEAN_MOTION_DDOT = 0

